[{"OBJECT_NAME":"STARLINK-30860","OBJECT_ID":"2023-171E","EPOCH":"2026-03-09T23:15:38.981952","MEAN_MOTION":15.26739072,"ECCENTRICITY":8.784e-5,"INCLINATION":42.9992,"RA_OF_ASC_NODE":283.106,"ARG_OF_PERICENTER":218.8643,"MEAN_ANOMALY":141.2145,"EPHEMERIS_TYPE":0,"CLASSIFICATION_TYPE":"U","NORAD_CAT_ID":58234,"ELEMENT_SET_NO":999,"REV_AT_EPOCH":12978,"BSTAR":6.833614e-6,"MEAN_MOTION_DOT":-7.6e-7,"MEAN_MOTION_DDOT":0},{"OBJECT_NAME":"OBJECT C","OBJECT_ID":"2025-197C","EPOCH":"2026-03-09T23:04:01.696800","MEAN_MOTION":15.23580455,"ECCENTRICITY":0.00147185,"INCLINATION":97.4111,"RA_OF_ASC_NODE":257.1199,"ARG_OF_PERICENTER":4.9748,"MEAN_ANOMALY":355.1632,"EPHEMERIS_TYPE":0,"CLASSIFICATION_TYPE":"U","NORAD_CAT_ID":65490,"ELEMENT_SET_NO":999,"REV_AT_EPOCH":2820,"BSTAR":0.00026991529,"MEAN_MOTION_DOT":6.405e-5,"MEAN_MOTION_DDOT":0}]
